OBJECT_NAME,OBJECT_ID,EPOCH,MEAN_MOTION,ECCENTRICITY,INCLINATION,RA_OF_ASC_NODE,ARG_OF_PERICENTER,MEAN_ANOMALY,EPHEMERIS_TYPE,CLASSIFICATION_TYPE,NORAD_CAT_ID,ELEMENT_SET_NO,REV_AT_EPOCH,BSTAR,MEAN_MOTION_DOT,MEAN_MOTION_DDOT
TRANSPORTER-17 OBJECT AC,2026-156AC,2026-07-23T12:13:45.541632,14.91557245,.0007932,97.7514,104.6902,90.3923,269.8205,0,U,69895,999,241,.82539E-4,.772E-5,0
TRANSPORTER-17 OBJECT AD,2026-156AD,2026-07-23T16:56:30.476256,14.92011193,.0009209,97.7527,104.8981,99.8005,260.4255,0,U,69896,999,244,.12431E-3,.1205E-4,0
TRANSPORTER-17 OBJECT AE,2026-156AE,2026-07-23T18:53:16.519200,14.90737403,.0003667,97.7568,104.9526,94.0907,266.0731,0,U,69897,999,245,.1454E-3,.1373E-4,0
TRANSPORTER-17 OBJECT AF,2026-156AF,2026-07-23T15:28:20.078112,14.91469152,.0007122,97.7546,104.8286,91.1078,269.0957,0,U,69898,999,243,.75407E-4,.699E-5,0
TRANSPORTER-17 OBJECT AG,2026-156AG,2026-07-23T15:32:49.431840,14.91185185,.0006731,97.7510,104.8169,80.4092,279.7887,0,U,69899,999,243,.78277E-4,.722E-5,0
TRANSPORTER-17 OBJECT AH,2026-156AH,2026-07-23T15:33:00.879840,14.91183693,.0006063,97.7560,104.8280,84.9400,275.2511,0,U,69900,999,243,.23754E-3,.2304E-4,0
TRANSPORTER-17 OBJECT AJ,2026-156AJ,2026-07-23T15:34:22.202976,14.91085398,.000621,97.7524,104.8182,79.1191,281.0726,0,U,69901,999,243,.80192E-4,.739E-5,0
TRANSPORTER-17 OBJECT AK,2026-156AK,2026-07-23T15:35:40.606656,14.91010439,.0005792,97.7490,104.8108,76.6149,283.5715,0,U,69902,999,243,.15785E-3,.1506E-4,0
TRANSPORTER-17 OBJECT AL,2026-156AL,2026-07-23T17:12:31.983840,14.90995835,.000505,97.7575,104.8928,85.4372,274.7423,0,U,69903,999,244,.15997E-3,.1526E-4,0
TRANSPORTER-17 OBJECT AM,2026-156AM,2026-07-23T15:26:31.543296,14.91588381,.0007816,97.7510,104.8214,91.7397,268.4717,0,U,69904,999,232,.108E-3,.1028E-4,0
TRANSPORTER-17 OBJECT AN,2026-156AN,2026-07-23T15:35:16.062144,14.91052733,.0005281,97.7562,104.8263,84.1703,276.0117,0,U,69905,999,243,.33899E-3,.3301E-4,0
TRANSPORTER-17 OBJECT AP,2026-156AP,2026-07-23T15:36:29.596320,14.90952531,.0005568,97.7473,104.8073,73.8667,286.3163,0,U,69906,999,243,.10363E-3,.968E-5,0
TRANSPORTER-17 OBJECT AQ,2026-156AQ,2026-07-23T15:36:39.339648,14.90937499,.0005225,97.7497,104.8115,77.9698,282.2106,0,U,69907,999,243,.60447E-4,.542E-5,0
TRANSPORTER-17 OBJECT AR,2026-156AR,2026-07-23T18:41:31.579872,14.91477845,.0007581,97.7517,104.9539,87.8332,272.3755,0,U,69908,999,245,.12766E-3,.1222E-4,0
TRANSPORTER-17 OBJECT AS,2026-156AS,2026-07-23T15:29:26.748672,14.91401139,.0007072,97.7537,104.8254,88.1203,272.0826,0,U,69909,999,243,.94332E-4,.887E-5,0
TRANSPORTER-17 OBJECT AT,2026-156AT,2026-07-23T15:36:25.119072,14.90981192,.0004899,97.7544,104.8211,87.1050,273.0729,0,U,69910,999,243,.31196E-3,.3028E-4,0
TRANSPORTER-17 OBJECT AU,2026-156AU,2026-07-23T10:50:28.513824,14.90702163,.0003719,97.7536,104.6174,84.3854,275.7788,0,U,69911,999,240,.11546E-3,.1078E-4,0
TRANSPORTER-17 OBJECT AV,2026-156AV,2026-07-23T05:58:46.719840,14.90816564,.0004177,97.7553,104.4240,87.4027,272.7670,0,U,69912,999,237,.13866E-3,.1309E-4,0
TRANSPORTER-17 OBJECT AW,2026-156AW,2026-07-23T05:57:28.511424,14.90900055,.0004372,97.7580,104.4297,95.4831,264.6886,0,U,69913,999,237,.12178E-3,.1146E-4,0
TRANSPORTER-17 OBJECT AX,2026-156AX,2026-07-23T12:26:24.919008,14.90747178,.0004415,97.7557,104.6885,73.3750,286.7952,0,U,69914,999,241,.10202E-3,.947E-5,0
TRANSPORTER-17 OBJECT AY,2026-156AY,2026-07-23T10:34:50.304864,14.91711668,.0008385,97.7511,104.6257,94.5049,265.7128,0,U,69915,999,240,.12107E-3,.1163E-4,0
TRANSPORTER-17 OBJECT AZ,2026-156AZ,2026-07-23T10:47:55.230720,14.90878493,.000455,97.7513,104.6164,82.6411,277.5324,0,U,69916,999,240,.24325E-3,.2343E-4,0
TRANSPORTER-17 OBJECT BA,2026-156BA,2026-07-23T15:11:55.652928,14.92523983,.001125,97.7572,104.8479,105.7905,254.4555,0,U,69917,999,243,.1454E-3,.1438E-4,0
TRANSPORTER-17 OBJECT BB,2026-156BB,2026-07-23T17:00:38.484864,14.91741797,.0007917,97.7550,104.8998,97.7367,262.4751,0,U,69918,999,244,.71324E-4,.663E-5,0
TRANSPORTER-17 OBJECT BC,2026-156BC,2026-07-23T20:11:46.674816,14.91871086,.0008751,97.7517,105.0260,97.0619,263.1595,0,U,69919,999,246,.77807E-4,.731E-5,0
MARINA,2026-156BD,2026-07-23T16:57:11.758176,14.91974769,.0009141,97.7521,104.8964,97.8826,262.3431,0,U,69920,999,244,.18003E-3,.1769E-4,0
TRANSPORTER-17 OBJECT BE,2026-156BE,2026-07-23T16:58:11.648064,14.91921938,.0008393,97.7545,104.9016,100.6063,259.6102,0,U,69921,999,244,.33651E-3,.3351E-4,0
TRANSPORTER-17 OBJECT BF,2026-156BF,2026-07-23T15:20:26.060064,14.91968479,.0009175,97.7517,104.8294,98.4780,261.7479,0,U,69922,999,243,.34351E-4,.292E-5,0
TRANSPORTER-17 OBJECT BG,2026-156BG,2026-07-23T18:33:25.088256,14.91988611,.0009279,97.7511,104.9606,97.2612,262.9662,0,U,69923,999,245,.1187E-3,.1148E-4,0
