TRANSPORTER-17 OBJECT AC
1 69895U 26156AC  26204.50955488  .00000772  00000+0  82539-4 0  9991
2 69895  97.7514 104.6902 0007932  90.3923 269.8205 14.91557245  2413
TRANSPORTER-17 OBJECT AD
1 69896U 26156AD  26204.70590829  .00001205  00000+0  12431-3 0  9993
2 69896  97.7527 104.8981 0009209  99.8005 260.4255 14.92011193  2444
TRANSPORTER-17 OBJECT AE
1 69897U 26156AE  26204.78699675  .00001373  00000+0  14540-3 0  9990
2 69897  97.7568 104.9526 0003667  94.0907 266.0731 14.90737403  2455
TRANSPORTER-17 OBJECT AF
1 69898U 26156AF  26204.64467683  .00000699  00000+0  75407-4 0  9998
2 69898  97.7546 104.8286 0007122  91.1078 269.0957 14.91469152  2436
TRANSPORTER-17 OBJECT AG
1 69899U 26156AG  26204.64779435  .00000722  00000+0  78277-4 0  9995
2 69899  97.7510 104.8169 0006731  80.4092 279.7887 14.91185185  2431
TRANSPORTER-17 OBJECT AH
1 69900U 26156AH  26204.64792685  .00002304  00000+0  23754-3 0  9997
2 69900  97.7560 104.8280 0006063  84.9400 275.2511 14.91183693  2430
TRANSPORTER-17 OBJECT AJ
1 69901U 26156AJ  26204.64886809  .00000739  00000+0  80192-4 0  9990
2 69901  97.7524 104.8182 0006210  79.1191 281.0726 14.91085398  2435
TRANSPORTER-17 OBJECT AK
1 69902U 26156AK  26204.64977554  .00001506  00000+0  15785-3 0  9997
2 69902  97.7490 104.8108 0005792  76.6149 283.5715 14.91010439  2434
TRANSPORTER-17 OBJECT AL
1 69903U 26156AL  26204.71703685  .00001526  00000+0  15997-3 0  9995
2 69903  97.7575 104.8928 0005050  85.4372 274.7423 14.90995835  2442
TRANSPORTER-17 OBJECT AM
1 69904U 26156AM  26204.64342064  .00001028  00000+0  10800-3 0  9993
2 69904  97.7510 104.8214 0007816  91.7397 268.4717 14.91588381  2327
TRANSPORTER-17 OBJECT AN
1 69905U 26156AN  26204.64949146  .00003301  00000+0  33899-3 0  9997
2 69905  97.7562 104.8263 0005281  84.1703 276.0117 14.91052733  2438
TRANSPORTER-17 OBJECT AP
1 69906U 26156AP  26204.65034255  .00000968  00000+0  10363-3 0  9992
2 69906  97.7473 104.8073 0005568  73.8667 286.3163 14.90952531  2430
TRANSPORTER-17 OBJECT AQ
1 69907U 26156AQ  26204.65045532  .00000542  00000+0  60447-4 0  9990
2 69907  97.7497 104.8115 0005225  77.9698 282.2106 14.90937499  2431
TRANSPORTER-17 OBJECT AR
1 69908U 26156AR  26204.77883773  .00001222  00000+0  12766-3 0  9997
2 69908  97.7517 104.9539 0007581  87.8332 272.3755 14.91477845  2455
TRANSPORTER-17 OBJECT AS
1 69909U 26156AS  26204.64544848  .00000887  00000+0  94332-4 0  9997
2 69909  97.7537 104.8254 0007072  88.1203 272.0826 14.91401139  2434
TRANSPORTER-17 OBJECT AT
1 69910U 26156AT  26204.65029073  .00003028  00000+0  31196-3 0  9996
2 69910  97.7544 104.8211 0004899  87.1050 273.0729 14.90981192  2434
TRANSPORTER-17 OBJECT AU
1 69911U 26156AU  26204.45171891  .00001078  00000+0  11546-3 0  9991
2 69911  97.7536 104.6174 0003719  84.3854 275.7788 14.90702163  2403
TRANSPORTER-17 OBJECT AV
1 69912U 26156AV  26204.24915185  .00001309  00000+0  13866-3 0  9995
2 69912  97.7553 104.4240 0004177  87.4027 272.7670 14.90816564  2374
TRANSPORTER-17 OBJECT AW
1 69913U 26156AW  26204.24824666  .00001146  00000+0  12178-3 0  9993
2 69913  97.7580 104.4297 0004372  95.4831 264.6886 14.90900055  2374
TRANSPORTER-17 OBJECT AX
1 69914U 26156AX  26204.51834397  .00000947  00000+0  10202-3 0  9990
2 69914  97.7557 104.6885 0004415  73.3750 286.7952 14.90747178  2416
TRANSPORTER-17 OBJECT AY
1 69915U 26156AY  26204.44086001  .00001163  00000+0  12107-3 0  9991
2 69915  97.7511 104.6257 0008385  94.5049 265.7128 14.91711668  2403
TRANSPORTER-17 OBJECT AZ
1 69916U 26156AZ  26204.44994480  .00002343  00000+0  24325-3 0  9997
2 69916  97.7513 104.6164 0004550  82.6411 277.5324 14.90878493  2402
TRANSPORTER-17 OBJECT BA
1 69917U 26156BA  26204.63328302  .00001438  00000+0  14540-3 0  9995
2 69917  97.7572 104.8479 0011250 105.7905 254.4555 14.92523983  2435
TRANSPORTER-17 OBJECT BB
1 69918U 26156BB  26204.70877876  .00000663  00000+0  71324-4 0  9992
2 69918  97.7550 104.8998 0007917  97.7367 262.4751 14.91741797  2447
TRANSPORTER-17 OBJECT BC
1 69919U 26156BC  26204.84151244  .00000731  00000+0  77807-4 0  9990
2 69919  97.7517 105.0260 0008751  97.0619 263.1595 14.91871086  2467
MARINA                  
1 69920U 26156BD  26204.70638609  .00001769  00000+0  18003-3 0  9996
2 69920  97.7521 104.8964 0009141  97.8826 262.3431 14.91974769  2444
TRANSPORTER-17 OBJECT BE
1 69921U 26156BE  26204.70707926  .00003351  00000+0  33651-3 0  9991
2 69921  97.7545 104.9016 0008393 100.6063 259.6102 14.91921938  2448
TRANSPORTER-17 OBJECT BF
1 69922U 26156BF  26204.63919051  .00000292  00000+0  34351-4 0  9998
2 69922  97.7517 104.8294 0009175  98.4780 261.7479 14.91968479  2435
TRANSPORTER-17 OBJECT BG
1 69923U 26156BG  26204.77320704  .00001148  00000+0  11870-3 0  9996
2 69923  97.7511 104.9606 0009279  97.2612 262.9662 14.91988611  2453
